OBJECT_NAME,OBJECT_ID,EPOCH,MEAN_MOTION,ECCENTRICITY,INCLINATION,RA_OF_ASC_NODE,ARG_OF_PERICENTER,MEAN_ANOMALY,EPHEMERIS_TYPE,CLASSIFICATION_TYPE,NORAD_CAT_ID,ELEMENT_SET_NO,REV_AT_EPOCH,BSTAR,MEAN_MOTION_DOT,MEAN_MOTION_DDOT
DUCHIFAT-1,2014-033M,2026-07-16T16:46:11.491104,15.71313651,.00027866,98.0414,261.1627,236.8489,123.2505,0,U,40021,999,66037,.77546207E-3,.99153E-3,0
NANOSATC-BR1,2014-033Q,2026-07-17T01:20:30.963552,15.32365382,.0005253,98.0704,233.1102,91.9307,268.2534,0,U,40024,999,65855,.32893482E-3,.10197E-3,0
QB50P1,2014-033R,2026-07-17T00:01:44.720256,15.18681576,.00104593,98.0964,211.2472,119.5295,240.6982,0,U,40025,999,65755,.20646572E-3,.4208E-4,0
DTUSAT-2,2014-033W,2026-07-16T22:55:56.464896,15.15364990,.00094083,98.0876,197.5823,126.6687,233.5410,0,U,40030,999,65719,.21093085E-3,.3907E-4,0
QB50P2,2014-033Y,2026-07-17T06:38:53.656224,15.15522510,.00092668,98.0764,197.0406,78.0159,282.2110,0,U,40032,999,65722,.21521134E-3,.4006E-4,0
PERSEUS-M1,2014-033AF,2026-07-17T14:37:58.715904,14.95720558,.00110674,97.9655,143.2446,188.2040,171.9001,0,U,40039,999,65518,.74509494E-4,.77E-5,0
POLYITAN-1,2014-033AJ,2026-07-17T14:01:25.439808,15.34270589,.00076925,98.0931,227.7445,57.2583,302.9398,0,U,40042,999,65825,.30090296E-3,.9903E-4,0
TIGRISAT,2014-033AK,2026-07-17T08:46:30.770688,14.85252924,.00484634,97.7867,347.6934,337.1451,22.7607,0,U,40043,999,65010,.84001052E-4,.68E-5,0
CANX-4,2014-034C,2026-07-17T14:47:58.083936,14.81313347,.00113749,98.3079,75.0414,274.1361,85.8550,0,U,40055,999,64903,.53443006E-4,.36E-5,0
CANX-5,2014-034D,2026-07-17T14:45:11.993760,14.81330705,.00113768,98.3082,75.0848,274.3961,85.5950,0,U,40056,999,63984,.53318483E-4,.359E-5,0
GONETS-M 10,2014-036C,2026-07-17T13:51:28.869408,12.42946161,.00229174,82.5126,288.8000,77.5289,282.8353,0,U,40063,999,54602,.19221687E-3,.37E-6,0
METEOR-M 2,2014-037A,2026-07-17T14:59:07.363392,14.21469932,.00050196,98.5134,173.2882,318.9474,41.1326,0,U,40069,999,62364,.85576155E-4,.145E-5,0
DX1,2014-037C,2026-07-17T13:55:57.448128,14.90064774,.00073145,98.3882,162.1315,162.6043,197.5425,0,U,40071,999,65063,.95022016E-4,.855E-5,0
UKUBE-1,2014-037F,2026-07-17T10:37:05.820672,15.13969103,.00032083,98.4243,204.9043,84.0580,276.1015,0,U,40074,999,65313,.24726026E-3,.4406E-4,0
GAOFEN-2,2014-049A,2026-07-17T15:34:37.017120,14.80928239,.00083596,98.0093,262.8250,127.5906,232.6066,0,U,40118,999,64374,.6587496E-5,-.2E-7,0
BRITE-PL2 (HEWELIUSZ),2014-049B,2026-07-16T21:31:13.773216,14.94689258,.00141718,97.9120,310.1310,16.6624,343.5058,0,U,40119,999,64588,.50494606E-4,.489E-5,0
CBERS 4,2014-079A,2026-07-17T15:16:14.611008,14.35517047,.00006995,98.3513,254.5103,54.9795,305.1456,0,U,40336,999,60832,.85106229E-4,.203E-5,0
SMAP,2015-003A,2026-07-17T13:48:41.182560,14.63390188,.0001616,98.1285,205.2407,94.0651,266.0736,0,U,40376,999,61206,.39625841E-4,.158E-5,0
GONETS-M 11,2015-020A,2026-07-17T14:20:17.886336,12.42878730,.00153364,82.4863,12.0377,297.7023,62.2500,0,U,40552,999,51251,.22119158E-3,.4E-6,0
GONETS-M 12,2015-020B,2026-07-17T13:41:39.389856,12.42892072,.00142355,82.4896,13.1861,281.6106,78.3376,0,U,40553,999,51250,-.92430609E-4,-.3E-7,0
GONETS-M 13,2015-020C,2026-07-17T15:00:06.981120,12.42871691,.00128064,82.4859,11.7584,265.2431,94.7186,0,U,40554,999,51248,-.54612367E-3,-.66E-6,0
DMC3-FM1,2015-032A,2026-07-17T13:53:45.238848,14.85768811,.0004647,97.6419,62.5561,328.4787,31.6150,0,U,40715,999,59442,.48585844E-4,.371E-5,0
DMC3-FM2,2015-032B,2026-07-17T14:25:19.480224,14.85777388,.00052873,97.6474,64.1719,334.1382,25.9568,0,U,40716,999,59442,.72353441E-4,.577E-5,0
DMC3-FM3,2015-032C,2026-07-17T14:59:14.022240,14.85762205,.00045673,97.6525,65.9668,336.0255,24.0748,0,U,40717,999,59443,-.49556089E-4,-.482E-5,0
CARBONITE 1 (CBNT-1),2015-032D,2026-07-17T14:23:25.174752,14.83674038,.00140787,97.6520,15.3956,188.6578,171.4396,0,U,40718,999,59385,.16240987E-3,.1292E-4,0
LILACSAT-2,2015-049K,2026-07-17T13:50:21.727968,15.52412720,.00085006,97.4622,236.5886,134.5938,225.6010,0,U,40908,999,60046,.17847448E-3,.10811E-3,0
