DUCHIFAT-1              
1 40021U 14033M   26197.69874411  .00099153  00000+0  77546-3 0  9991
2 40021  98.0414 261.1627 0002786 236.8489 123.2505 15.71313651660376
NANOSATC-BR1            
1 40024U 14033Q   26198.05591393  .00010197  00000+0  32893-3 0  9997
2 40024  98.0704 233.1102 0005253  91.9307 268.2534 15.32365382658553
QB50P1                  
1 40025U 14033R   26198.00121204  .00004208  00000+0  20647-3 0  9993
2 40025  98.0964 211.2472 0010459 119.5295 240.6982 15.18681576657556
DTUSAT-2                
1 40030U 14033W   26197.95551464  .00003907  00000+0  21093-3 0  9998
2 40030  98.0876 197.5823 0009408 126.6687 233.5410 15.15364990657198
QB50P2                  
1 40032U 14033Y   26198.27700991  .00004006  00000+0  21521-3 0  9994
2 40032  98.0764 197.0406 0009266  78.0159 282.2110 15.15522510657220
PERSEUS-M1              
1 40039U 14033AF  26198.60970736  .00000770  00000+0  74509-4 0  9993
2 40039  97.9655 143.2446 0011067 188.2040 171.9001 14.95720558655181
POLYITAN-1              
1 40042U 14033AJ  26198.58432222  .00009903  00000+0  30090-3 0  9990
2 40042  98.0931 227.7445 0007692  57.2583 302.9398 15.34270589658251
TIGRISAT                
1 40043U 14033AK  26198.36563392  .00000680  00000+0  84001-4 0  9995
2 40043  97.7867 347.6934 0048463 337.1451  22.7607 14.85252924650100
CANX-4                  
1 40055U 14034C   26198.61664449  .00000360  00000+0  53443-4 0  9993
2 40055  98.3079  75.0414 0011374 274.1361  85.8550 14.81313347649031
CANX-5                  
1 40056U 14034D   26198.61472215  .00000359  00000+0  53318-4 0  9991
2 40056  98.3082  75.0848 0011376 274.3961  85.5950 14.81330705639843
GONETS-M 10             
1 40063U 14036C   26198.57741747  .00000037  00000+0  19222-3 0  9993
2 40063  82.5126 288.8000 0022917  77.5289 282.8353 12.42946161546028
METEOR-M 2              
1 40069U 14037A   26198.62439078  .00000145  00000+0  85576-4 0  9993
2 40069  98.5134 173.2882 0005019 318.9474  41.1326 14.21469932623642
DX1                     
1 40071U 14037C   26198.58052602  .00000855  00000+0  95022-4 0  9990
2 40071  98.3882 162.1315 0007314 162.6043 197.5425 14.90064774650633
UKUBE-1                 
1 40074U 14037F   26198.44242848  .00004406  00000+0  24726-3 0  9999
2 40074  98.4243 204.9043 0003208  84.0580 276.1015 15.13969103653135
GAOFEN-2                
1 40118U 14049A   26198.64903955 -.00000002  00000+0  65875-5 0  9997
2 40118  98.0093 262.8250 0008359 127.5906 232.6066 14.80928239643740
BRITE-PL2 (HEWELIUSZ)   
1 40119U 14049B   26197.89668719  .00000489  00000+0  50495-4 0  9999
2 40119  97.9120 310.1310 0014171  16.6624 343.5058 14.94689258645888
CBERS 4                 
1 40336U 14079A   26198.63628022  .00000203  00000+0  85106-4 0  9990
2 40336  98.3513 254.5103 0000699  54.9795 305.1456 14.35517047608320
SMAP                    
1 40376U 15003A   26198.57547665  .00000158  00000+0  39626-4 0  9993
2 40376  98.1285 205.2407 0001616  94.0651 266.0736 14.63390188612062
GONETS-M 11             
1 40552U 15020A   26198.59742924  .00000040  00000+0  22119-3 0  9993
2 40552  82.4863  12.0377 0015336 297.7023  62.2500 12.42878730512518
GONETS-M 12             
1 40553U 15020B   26198.57059479 -.00000003  00000+0 -92431-4 0  9994
2 40553  82.4896  13.1861 0014235 281.6106  78.3376 12.42892072512509
GONETS-M 13             
1 40554U 15020C   26198.62508080 -.00000066  00000+0 -54612-3 0  9995
2 40554  82.4859  11.7584 0012806 265.2431  94.7186 12.42871691512488
DMC3-FM1                
1 40715U 15032A   26198.57899582  .00000371  00000+0  48586-4 0  9992
2 40715  97.6419  62.5561 0004647 328.4787  31.6150 14.85768811594429
DMC3-FM2                
1 40716U 15032B   26198.60091991  .00000577  00000+0  72353-4 0  9992
2 40716  97.6474  64.1719 0005287 334.1382  25.9568 14.85777388594428
DMC3-FM3                
1 40717U 15032C   26198.62446785 -.00000482  00000+0 -49556-4 0  9996
2 40717  97.6525  65.9668 0004567 336.0255  24.0748 14.85762205594431
CARBONITE 1 (CBNT-1)    
1 40718U 15032D   26198.59959693  .00001292  00000+0  16241-3 0  9992
2 40718  97.6520  15.3956 0014078 188.6578 171.4396 14.83674038593858
LILACSAT-2              
1 40908U 15049K   26198.57664037  .00010811  00000+0  17847-3 0  9994
2 40908  97.4622 236.5886 0008500 134.5938 225.6010 15.52412720600468
